ASTROCAST-0402          
1 55109U 23001DE  26068.80661100  .00010930  00000+0  41835-3 0  9996
2 55109  97.5556 160.6821 0004209 216.6984 143.3966 15.26734153129364
STARLINK-31207          
1 59035U 24038N   26068.20026713 -.00000620  00000+0 -13000-4 0  9999
2 59035  43.0042  26.3087 0001010 270.6163  89.4573 15.27575191114780
